[{"OBJECT_NAME":"SALSAT","OBJECT_ID":"2020-068K","EPOCH":"2026-03-09T22:26:21.804576","MEAN_MOTION":15.28191989,"ECCENTRICITY":0.00082652,"INCLINATION":97.8859,"RA_OF_ASC_NODE":66.0795,"ARG_OF_PERICENTER":295.8051,"MEAN_ANOMALY":64.2334,"EPHEMERIS_TYPE":0,"CLASSIFICATION_TYPE":"U","NORAD_CAT_ID":46495,"ELEMENT_SET_NO":999,"REV_AT_EPOCH":30019,"BSTAR":0.00040842582,"MEAN_MOTION_DOT":0.00011156,"MEAN_MOTION_DDOT":0},{"OBJECT_NAME":"STARLINK-32715","OBJECT_ID":"2025-006R","EPOCH":"2026-03-09T01:30:36.027072","MEAN_MOTION":15.27585258,"ECCENTRICITY":6.788e-5,"INCLINATION":42.9936,"RA_OF_ASC_NODE":296.3917,"ARG_OF_PERICENTER":24.9163,"MEAN_ANOMALY":335.1721,"EPHEMERIS_TYPE":0,"CLASSIFICATION_TYPE":"U","NORAD_CAT_ID":62569,"ELEMENT_SET_NO":999,"REV_AT_EPOCH":6476,"BSTAR":0.00078591994,"MEAN_MOTION_DOT":0.00021431,"MEAN_MOTION_DDOT":0}]
